[{"OBJECT_NAME":"BEESAT-1","OBJECT_ID":"2009-051C","EPOCH":"2026-03-09T17:02:23.062560","MEAN_MOTION":14.61533291,"ECCENTRICITY":0.00053108,"INCLINATION":98.4027,"RA_OF_ASC_NODE":334.6934,"ARG_OF_PERICENTER":163.1503,"MEAN_ANOMALY":196.9874,"EPHEMERIS_TYPE":0,"CLASSIFICATION_TYPE":"U","NORAD_CAT_ID":35933,"ELEMENT_SET_NO":999,"REV_AT_EPOCH":87465,"BSTAR":0.00027708077,"MEAN_MOTION_DOT":1.326e-5,"MEAN_MOTION_DDOT":0},{"OBJECT_NAME":"CZ-6A DEB","OBJECT_ID":"2024-140NU","EPOCH":"2026-03-09T12:31:51.442752","MEAN_MOTION":14.86441835,"ECCENTRICITY":0.01338094,"INCLINATION":88.7229,"RA_OF_ASC_NODE":259.52,"ARG_OF_PERICENTER":124.7168,"MEAN_ANOMALY":236.6749,"EPHEMERIS_TYPE":0,"CLASSIFICATION_TYPE":"U","NORAD_CAT_ID":61102,"ELEMENT_SET_NO":999,"REV_AT_EPOCH":8243,"BSTAR":0.0019148109,"MEAN_MOTION_DOT":0.00019972,"MEAN_MOTION_DDOT":0}]
